[{"OBJECT_NAME":"STARLINK-5100","OBJECT_ID":"2023-015AY","EPOCH":"2026-03-09T01:24:26.349120","MEAN_MOTION":15.02646487,"ECCENTRICITY":0.00020274,"INCLINATION":43.0053,"RA_OF_ASC_NODE":316.8774,"ARG_OF_PERICENTER":283.8127,"MEAN_ANOMALY":76.249,"EPHEMERIS_TYPE":0,"CLASSIFICATION_TYPE":"U","NORAD_CAT_ID":55495,"ELEMENT_SET_NO":999,"REV_AT_EPOCH":17080,"BSTAR":-0.0018406992,"MEAN_MOTION_DOT":-0.00025054,"MEAN_MOTION_DDOT":0},{"OBJECT_NAME":"OV1-5 DEB","OBJECT_ID":"1966-025G","EPOCH":"2026-03-09T05:46:25.644576","MEAN_MOTION":14.96071423,"ECCENTRICITY":0.0021156,"INCLINATION":144.6099,"RA_OF_ASC_NODE":304.3983,"ARG_OF_PERICENTER":142.8833,"MEAN_ANOMALY":217.3344,"EPHEMERIS_TYPE":0,"CLASSIFICATION_TYPE":"U","NORAD_CAT_ID":5599,"ELEMENT_SET_NO":999,"REV_AT_EPOCH":8962,"BSTAR":0.0043119514,"MEAN_MOTION_DOT":0.00050705,"MEAN_MOTION_DDOT":0}]
